export const dummyData = [{
  "CCSDS_OMM_VERS": "2.0",
  "COMMENT": "GENERATED VIA SPACE-TRACK.ORG API",
  "CREATION_DATE": "2021-09-29T18:04:29",
  "ORIGINATOR": "18 SPCS",
  "OBJECT_NAME": "YUNHAI 1-02 DEB",
  "OBJECT_ID": "2019-063AT",
  "CENTER_NAME": "EARTH",
  "REF_FRAME": "TEME",
  "TIME_SYSTEM": "UTC",
  "MEAN_ELEMENT_THEORY": "SGP4",
  "EPOCH": "2021-09-28T00:18:31.550688",
  "MEAN_MOTION": "14.34111012",
  "ECCENTRICITY": "0.00043480",
  "INCLINATION": "98.5535",
  "RA_OF_ASC_NODE": "296.3547",
  "ARG_OF_PERICENTER": "107.3701",
  "MEAN_ANOMALY": "252.8041",
  "EPHEMERIS_TYPE": "0",
  "CLASSIFICATION_TYPE": "U",
  "NORAD_CAT_ID": "49267",
  "ELEMENT_SET_NO": "999",
  "REV_AT_EPOCH": "2700",
  "BSTAR": "0.00163320000000",
  "MEAN_MOTION_DOT": "0.00004529",
  "MEAN_MOTION_DDOT": "0.0000000000000",
  "SEMIMAJOR_AXIS": "7156.159",
  "PERIOD": "100.411",
  "APOAPSIS": "781.136",
  "PERIAPSIS": "774.913",
  "OBJECT_TYPE": "DEBRIS",
  "RCS_SIZE": null,
  "COUNTRY_CODE": null,
  "LAUNCH_DATE": null,
  "SITE": null,
  "DECAY_DATE": null,
  "FILE": "3134986",
  "GP_ID": "185794113",
  "TLE_LINE0": "0 YUNHAI 1-02 DEB",
  "TLE_LINE1": "1 49267U 19063AT  21271.01286517  .00004529  00000-0  16332-2 0  9997",
  "TLE_LINE2": "2 49267  98.5535 296.3547 0004348 107.3701 252.8041 14.34111012 27008"
}, {
  "CCSDS_OMM_VERS": "2.0",
  "COMMENT": "GENERATED VIA SPACE-TRACK.ORG API",
  "CREATION_DATE": "2021-09-28T16:16:11",
  "ORIGINATOR": "18 SPCS",
  "OBJECT_NAME": "YUNHAI 1-02 DEB",
  "OBJECT_ID": "2019-063AS",
  "CENTER_NAME": "EARTH",
  "REF_FRAME": "TEME",
  "TIME_SYSTEM": "UTC",
  "MEAN_ELEMENT_THEORY": "SGP4",
  "EPOCH": "2021-09-28T07:23:50.444736",
  "MEAN_MOTION": "14.34790113",
  "ECCENTRICITY": "0.00114370",
  "INCLINATION": "98.5377",
  "RA_OF_ASC_NODE": "296.5207",
  "ARG_OF_PERICENTER": "91.5160",
  "MEAN_ANOMALY": "268.7335",
  "EPHEMERIS_TYPE": "0",
  "CLASSIFICATION_TYPE": "U",
  "NORAD_CAT_ID": "49266",
  "ELEMENT_SET_NO": "999",
  "REV_AT_EPOCH": "1510",
  "BSTAR": "0.00225720000000",
  "MEAN_MOTION_DOT": "0.00006367",
  "MEAN_MOTION_DDOT": "0.0000000000000",
  "SEMIMAJOR_AXIS": "7153.901",
  "PERIOD": "100.363",
  "APOAPSIS": "783.948",
  "PERIAPSIS": "767.584",
  "OBJECT_TYPE": "DEBRIS",
  "RCS_SIZE": null,
  "COUNTRY_CODE": null,
  "LAUNCH_DATE": null,
  "SITE": null,
  "DECAY_DATE": null,
  "FILE": "3132557",
  "GP_ID": "185694318",
  "TLE_LINE0": "0 YUNHAI 1-02 DEB",
  "TLE_LINE1": "1 49266U 19063AS  21271.30822274  .00006367  00000-0  22572-2 0  9999",
  "TLE_LINE2": "2 49266  98.5377 296.5207 0011437  91.5160 268.7335 14.34790113 15101"
}, {
  "CCSDS_OMM_VERS": "2.0",
  "COMMENT": "GENERATED VIA SPACE-TRACK.ORG API",
  "CREATION_DATE": "2021-09-28T16:16:11",
  "ORIGINATOR": "18 SPCS",
  "OBJECT_NAME": "YUNHAI 1-02 DEB",
  "OBJECT_ID": "2019-063AR",
  "CENTER_NAME": "EARTH",
  "REF_FRAME": "TEME",
  "TIME_SYSTEM": "UTC",
  "MEAN_ELEMENT_THEORY": "SGP4",
  "EPOCH": "2021-09-28T11:46:29.408160",
  "MEAN_MOTION": "14.13951444",
  "ECCENTRICITY": "0.01188990",
  "INCLINATION": "98.6060",
  "RA_OF_ASC_NODE": "290.7324",
  "ARG_OF_PERICENTER": "269.9659",
  "MEAN_ANOMALY": "88.8087",
  "EPHEMERIS_TYPE": "0",
  "CLASSIFICATION_TYPE": "U",
  "NORAD_CAT_ID": "49265",
  "ELEMENT_SET_NO": "999",
  "REV_AT_EPOCH": "1478",
  "BSTAR": "0.01002500000000",
  "MEAN_MOTION_DOT": "0.00020372",
  "MEAN_MOTION_DDOT": "0.0000000000000",
  "SEMIMAJOR_AXIS": "7224.018",
  "PERIOD": "101.842",
  "APOAPSIS": "931.776",
  "PERIAPSIS": "759.991",
  "OBJECT_TYPE": "DEBRIS",
  "RCS_SIZE": null,
  "COUNTRY_CODE": null,
  "LAUNCH_DATE": null,
  "SITE": null,
  "DECAY_DATE": null,
  "FILE": "3132554",
  "GP_ID": "185694317",
  "TLE_LINE0": "0 YUNHAI 1-02 DEB",
  "TLE_LINE1": "1 49265U 19063AR  21271.49061815  .00020372  00000-0  10025-1 0  9995",
  "TLE_LINE2": "2 49265  98.6060 290.7324 0118899 269.9659  88.8087 14.13951444 14781"
}, {
  "CCSDS_OMM_VERS": "2.0",
  "COMMENT": "GENERATED VIA SPACE-TRACK.ORG API",
  "CREATION_DATE": "2021-10-02T06:46:12",
  "ORIGINATOR": "18 SPCS",
  "OBJECT_NAME": "SZ-12 MODULE DEB",
  "OBJECT_ID": "2021-053H",
  "CENTER_NAME": "EARTH",
  "REF_FRAME": "TEME",
  "TIME_SYSTEM": "UTC",
  "MEAN_ELEMENT_THEORY": "SGP4",
  "EPOCH": "2021-10-01T22:25:42.955680",
  "MEAN_MOTION": "15.75694613",
  "ECCENTRICITY": "0.00130690",
  "INCLINATION": "41.5450",
  "RA_OF_ASC_NODE": "351.4121",
  "ARG_OF_PERICENTER": "47.8519",
  "MEAN_ANOMALY": "312.3435",
  "EPHEMERIS_TYPE": "0",
  "CLASSIFICATION_TYPE": "U",
  "NORAD_CAT_ID": "49255",
  "ELEMENT_SET_NO": "999",
  "REV_AT_EPOCH": "179",
  "BSTAR": "0.00571170000000",
  "MEAN_MOTION_DOT": "0.01003217",
  "MEAN_MOTION_DDOT": "0.0000000000000",
  "SEMIMAJOR_AXIS": "6720.792",
  "PERIOD": "91.388",
  "APOAPSIS": "351.441",
  "PERIAPSIS": "333.874",
  "OBJECT_TYPE": "DEBRIS",
  "RCS_SIZE": "SMALL",
  "COUNTRY_CODE": "PRC",
  "LAUNCH_DATE": "2021-06-17",
  "SITE": "JSC",
  "DECAY_DATE": null,
  "FILE": "3139864",
  "GP_ID": "185974246",
  "TLE_LINE0": "0 SZ-12 MODULE DEB",
  "TLE_LINE1": "1 49255U 21053H   21274.93452495  .01003217  00000-0  57117-2 0  9990",
  "TLE_LINE2": "2 49255  41.5450 351.4121 0013069  47.8519 312.3435 15.75694613  1791"
}, {
  "CCSDS_OMM_VERS": "2.0",
  "COMMENT": "GENERATED VIA SPACE-TRACK.ORG API",
  "CREATION_DATE": "2021-10-02T06:36:12",
  "ORIGINATOR": "18 SPCS",
  "OBJECT_NAME": "SZ-12 MODULE DEB",
  "OBJECT_ID": "2021-053G",
  "CENTER_NAME": "EARTH",
  "REF_FRAME": "TEME",
  "TIME_SYSTEM": "UTC",
  "MEAN_ELEMENT_THEORY": "SGP4",
  "EPOCH": "2021-10-01T22:20:00.381408",
  "MEAN_MOTION": "15.76928532",
  "ECCENTRICITY": "0.00143930",
  "INCLINATION": "41.5302",
  "RA_OF_ASC_NODE": "351.3827",
  "ARG_OF_PERICENTER": "35.1265",
  "MEAN_ANOMALY": "325.0527",
  "EPHEMERIS_TYPE": "0",
  "CLASSIFICATION_TYPE": "U",
  "NORAD_CAT_ID": "49254",
  "ELEMENT_SET_NO": "999",
  "REV_AT_EPOCH": "227",
  "BSTAR": "0.00735920000000",
  "MEAN_MOTION_DOT": "0.01390012",
  "MEAN_MOTION_DDOT": "0.0000000000000",
  "SEMIMAJOR_AXIS": "6717.286",
  "PERIOD": "91.317",
  "APOAPSIS": "348.819",
  "PERIAPSIS": "329.483",
  "OBJECT_TYPE": "DEBRIS",
  "RCS_SIZE": "SMALL",
  "COUNTRY_CODE": "PRC",
  "LAUNCH_DATE": "2021-06-17",
  "SITE": "JSC",
  "DECAY_DATE": null,
  "FILE": "3139752",
  "GP_ID": "185971631",
  "TLE_LINE0": "0 SZ-12 MODULE DEB",
  "TLE_LINE1": "1 49254U 21053G   21274.93055997  .01390012  00000-0  73592-2 0  9992",
  "TLE_LINE2": "2 49254  41.5302 351.3827 0014393  35.1265 325.0527 15.76928532  2275"
}, {
  "CCSDS_OMM_VERS": "2.0",
  "COMMENT": "GENERATED VIA SPACE-TRACK.ORG API",
  "CREATION_DATE": "2021-10-02T03:59:35",
  "ORIGINATOR": "18 SPCS",
  "OBJECT_NAME": "SZ-12 MODULE DEB",
  "OBJECT_ID": "2021-053F",
  "CENTER_NAME": "EARTH",
  "REF_FRAME": "TEME",
  "TIME_SYSTEM": "UTC",
  "MEAN_ELEMENT_THEORY": "SGP4",
  "EPOCH": "2021-10-01T14:23:16.322208",
  "MEAN_MOTION": "15.63686143",
  "ECCENTRICITY": "0.00099690",
  "INCLINATION": "41.5416",
  "RA_OF_ASC_NODE": "354.1449",
  "ARG_OF_PERICENTER": "32.5831",
  "MEAN_ANOMALY": "327.5624",
  "EPHEMERIS_TYPE": "0",
  "CLASSIFICATION_TYPE": "U",
  "NORAD_CAT_ID": "49253",
  "ELEMENT_SET_NO": "999",
  "REV_AT_EPOCH": "225",
  "BSTAR": "0.00268130000000",
  "MEAN_MOTION_DOT": "0.00266155",
  "MEAN_MOTION_DDOT": "0.0000000000000",
  "SEMIMAJOR_AXIS": "6755.157",
  "PERIOD": "92.090",
  "APOAPSIS": "383.756",
  "PERIAPSIS": "370.288",
  "OBJECT_TYPE": "DEBRIS",
  "RCS_SIZE": "SMALL",
  "COUNTRY_CODE": "PRC",
  "LAUNCH_DATE": "2021-06-17",
  "SITE": "JSC",
  "DECAY_DATE": null,
  "FILE": "3139397",
  "GP_ID": "185962841",
  "TLE_LINE0": "0 SZ-12 MODULE DEB",
  "TLE_LINE1": "1 49253U 21053F   21274.59949447  .00266155  00000-0  26813-2 0  9998",
  "TLE_LINE2": "2 49253  41.5416 354.1449 0009969  32.5831 327.5624 15.63686143  2252"
}];